{
  "norad_id": 68483,
  "name": "TRANSPORTER-16 OBJECT BV",
  "history": [
    {
      "epoch": "2026-04-13T20:24:12.356064Z",
      "apogee_km": 593.8836365160741,
      "perigee_km": 587.7495635573205,
      "latitude_deg": 2.254361487010018e-05,
      "longitude_deg": -84.94869461235666,
      "height_km": 595.548008678929,
      "semi_major_axis_km": 6968.953600036697,
      "eccentricity": 0.0004401,
      "inclination_deg": 97.7598,
      "raan_deg": 63.1378,
      "arg_perigee_deg": 123.5501,
      "mean_anomaly_deg": 236.6139,
      "mean_motion_rev_day": 14.92283725
    },
    {
      "epoch": "2026-04-16T20:49:13.270080Z",
      "apogee_km": 593.9852868124308,
      "perigee_km": 587.6156779535331,
      "latitude_deg": -6.397189035118647e-05,
      "longitude_deg": -91.20364329642983,
      "height_km": 595.2498901607223,
      "semi_major_axis_km": 6968.937482382982,
      "eccentricity": 0.000457,
      "inclination_deg": 97.7604,
      "raan_deg": 66.1107,
      "arg_perigee_deg": 116.3576,
      "mean_anomaly_deg": 243.8112,
      "mean_motion_rev_day": 14.92288902
    },
    {
      "epoch": "2026-04-17T14:31:20.081856Z",
      "apogee_km": 594.0210512906642,
      "perigee_km": 587.5715822633201,
      "latitude_deg": -1.6159755123247777e-05,
      "longitude_deg": 3.267677895585422,
      "height_km": 595.1784430641275,
      "semi_major_axis_km": 6968.933316776992,
      "eccentricity": 0.00046273,
      "inclination_deg": 97.7605,
      "raan_deg": 66.8374,
      "arg_perigee_deg": 114.6887,
      "mean_anomaly_deg": 245.4814,
      "mean_motion_rev_day": 14.9229024
    },
    {
      "epoch": "2026-04-21T13:28:06.508416Z",
      "apogee_km": 594.0942140065063,
      "perigee_km": 587.4486629195872,
      "latitude_deg": 3.7466554969305343e-06,
      "longitude_deg": 19.072823613913542,
      "height_km": 594.7109759750665,
      "semi_major_axis_km": 6968.908438463047,
      "eccentricity": 0.0004768,
      "inclination_deg": 97.7609,
      "raan_deg": 70.7353,
      "arg_perigee_deg": 105.8093,
      "mean_anomaly_deg": 254.3652,
      "mean_motion_rev_day": 14.92298231
    },
    {
      "epoch": "2026-04-22T20:02:39.259104Z",
      "apogee_km": 594.1131276306187,
      "perigee_km": 587.4104407799705,
      "latitude_deg": -3.338387225527362e-05,
      "longitude_deg": -79.56403774287482,
      "height_km": 594.5450707890153,
      "semi_major_axis_km": 6968.898784205295,
      "eccentricity": 0.0004809,
      "inclination_deg": 97.761,
      "raan_deg": 71.9906,
      "arg_perigee_deg": 102.9183,
      "mean_anomaly_deg": 257.2573,
      "mean_motion_rev_day": 14.92301332
    },
    {
      "epoch": "2026-04-22T20:02:39.259968Z",
      "apogee_km": 594.1129882526438,
      "perigee_km": 587.4105801579462,
      "latitude_deg": -3.1155743656920544e-05,
      "longitude_deg": -79.56404165474585,
      "height_km": 594.5450396221835,
      "semi_major_axis_km": 6968.898784205295,
      "eccentricity": 0.00048088,
      "inclination_deg": 97.761,
      "raan_deg": 71.9906,
      "arg_perigee_deg": 102.9183,
      "mean_anomaly_deg": 257.2573,
      "mean_motion_rev_day": 14.92301332
    },
    {
      "epoch": "2026-04-24T04:13:44.964768Z",
      "apogee_km": 594.1349812272856,
      "perigee_km": 587.3640111076083,
      "latitude_deg": 3.298823831306755e-05,
      "longitude_deg": 157.66178970015358,
      "height_km": 594.3614787807767,
      "semi_major_axis_km": 6968.886496167446,
      "eccentricity": 0.0004858,
      "inclination_deg": 97.7611,
      "raan_deg": 73.312,
      "arg_perigee_deg": 99.8334,
      "mean_anomaly_deg": 260.3434,
      "mean_motion_rev_day": 14.92305279
    },
    {
      "epoch": "2026-04-25T18:51:02.676096Z",
      "apogee_km": 594.1234335314093,
      "perigee_km": 587.2758546449295,
      "latitude_deg": -4.243734731338121e-05,
      "longitude_deg": -61.662530260201954,
      "height_km": 594.0654881207627,
      "semi_major_axis_km": 6968.836644088169,
      "eccentricity": 0.0004913,
      "inclination_deg": 97.7612,
      "raan_deg": 74.8976,
      "arg_perigee_deg": 95.5695,
      "mean_anomaly_deg": 264.6084,
      "mean_motion_rev_day": 14.92321292
    },
    {
      "epoch": "2026-04-25T18:51:02.676960Z",
      "apogee_km": 594.1231547779444,
      "perigee_km": 587.2761333983944,
      "latitude_deg": -3.78877267498898e-05,
      "longitude_deg": -61.662534486761736,
      "height_km": 594.0654610599281,
      "semi_major_axis_km": 6968.836644088169,
      "eccentricity": 0.00049126,
      "inclination_deg": 97.7612,
      "raan_deg": 74.8976,
      "arg_perigee_deg": 95.5695,
      "mean_anomaly_deg": 264.6084,
      "mean_motion_rev_day": 14.92321292
    }
  ]
}